start=new Date('2023-01-02T00:00:00.000Z').valueOf();
sats=[{"EPOCH":"2023-01-01T18:40:38.817984","MEAN_MOTION_DDOT":"0.0000000000000","SITE":"AFETR","TLE_LINE1":"1 47646U 21012AC  23001.77822706  .00000596  00000-0  58906-4 0  9990","DECAY_DATE":null,"BSTAR":"0.00005890600000","GP_ID":"221987519","OBJECT_TYPE":"PAYLOAD","MEAN_ANOMALY":"281.9774","COUNTRY_CODE":"US","REV_AT_EPOCH":"10559","OBJECT_ID":"2021-012AC","ECCENTRICITY":"0.00014240","TLE_LINE2":"2 47646  53.0531 187.3750 0001424  78.1374 281.9774 15.06399626105593","LAUNCH_DATE":"2021-02-16","RA_OF_ASC_NODE":"187.3750","OBJECT_NAME":"STARLINK-2028","INCLINATION":"53.0531","TIME_SYSTEM":"UTC","NORAD_CAT_ID":"47646","CENTER_NAME":"EARTH","CLASSIFICATION_TYPE":"U","ELEMENT_SET_NO":"999","MEAN_MOTION_DOT":"0.00000596","MEAN_ELEMENT_THEORY":"SGP4","PERIOD":"95.592","PERIAPSIS":"546.229","EPHEMERIS_TYPE":"0","SEMIMAJOR_AXIS":"6925.350","FILE":"3728952","APOAPSIS":"548.201","MEAN_MOTION":"15.06399626","ARG_OF_PERICENTER":"78.1374","REF_FRAME":"TEME","RCS_SIZE":"LARGE"},{"LAUNCH_DATE":"2021-02-16","TLE_LINE2":"2 47647  53.0516 252.4231 0000841  80.2652 279.8431 15.06374854104704","TIME_SYSTEM":"UTC","INCLINATION":"53.0516","RA_OF_ASC_NODE":"252.4231","OBJECT_NAME":"STARLINK-2030","TLE_LINE1":"1 47647U 21012AD  23001.71507958  .00011004  00000-0  75697-3 0  9995","BSTAR":"0.00075697000000","DECAY_DATE":null,"SITE":"AFETR","EPOCH":"2023-01-01T17:09:42.875712","MEAN_MOTION_DDOT":"0.0000000000000","OBJECT_ID":"2021-012AD","ECCENTRICITY":"0.00008410","REV_AT_EPOCH":"10470","COUNTRY_CODE":"US","OBJECT_TYPE":"PAYLOAD","GP_ID":"221988269","MEAN_ANOMALY":"279.8431","MEAN_MOTION":"15.06374854","ARG_OF_PERICENTER":"80.2652","FILE":"3728952","APOAPSIS":"547.873","RCS_SIZE":"LARGE","REF_FRAME":"TEME","MEAN_MOTION_DOT":"0.00011004","MEAN_ELEMENT_THEORY":"SGP4","ELEMENT_SET_NO":"999","CLASSIFICATION_TYPE":"U","NORAD_CAT_ID":"47647","CENTER_NAME":"EARTH","SEMIMAJOR_AXIS":"6925.426","PERIAPSIS":"546.708","EPHEMERIS_TYPE":"0","PERIOD":"95.594"},{"TLE_LINE2":"2 47648  53.0501 231.5693 0001292 103.4075 256.7058 15.06390430104490","LAUNCH_DATE":"2021-02-16","OBJECT_NAME":"STARLINK-2031","RA_OF_ASC_NODE":"231.5693","INCLINATION":"53.0501","TIME_SYSTEM":"UTC","MEAN_MOTION_DDOT":"0.0000000000000","EPOCH":"2023-01-01T21:43:04.580832","BSTAR":"-0.00007683500000","TLE_LINE1":"1 47648U 21012AE  23001.90491413 -.00001425  00000-0 -76835-4 0  9999","DECAY_DATE":null,"SITE":"AFETR","MEAN_ANOMALY":"256.7058","GP_ID":"221964477","OBJECT_TYPE":"PAYLOAD","COUNTRY_CODE":"US","REV_AT_EPOCH":"10449","ECCENTRICITY":"0.00012920","OBJECT_ID":"2021-012AE","APOAPSIS":"548.138","FILE":"3728851","ARG_OF_PERICENTER":"103.4075","MEAN_MOTION":"15.06390430","REF_FRAME":"TEME","RCS_SIZE":"MEDIUM","NORAD_CAT_ID":"47648","CENTER_NAME":"EARTH","CLASSIFICATION_TYPE":"U","ELEMENT_SET_NO":"999","MEAN_ELEMENT_THEORY":"SGP4","MEAN_MOTION_DOT":"-0.00001425","PERIOD":"95.593","EPHEMERIS_TYPE":"0","PERIAPSIS":"546.348","SEMIMAJOR_AXIS":"6925.378"},{"TLE_LINE1":"1 47649U 21012AF  23001.90861049  .00012544  00000-0  85942-3 0  9996","SITE":"AFETR","DECAY_DATE":null,"BSTAR":"0.00085942000000","EPOCH":"2023-01-01T21:48:23.946336","MEAN_MOTION_DDOT":"0.0000000000000","OBJECT_ID":"2021-012AF","ECCENTRICITY":"0.00016570","REV_AT_EPOCH":"10501","COUNTRY_CODE":"US","GP_ID":"221988771","OBJECT_TYPE":"PAYLOAD","MEAN_ANOMALY":"276.7361","LAUNCH_DATE":"2021-02-16","TLE_LINE2":"2 47649  53.0531 231.5584 0001657  83.3817 276.7361 15.06403562105017","TIME_SYSTEM":"UTC","INCLINATION":"53.0531","RA_OF_ASC_NODE":"231.5584","OBJECT_NAME":"STARLINK-2032","MEAN_MOTION_DOT":"0.00012544","MEAN_ELEMENT_THEORY":"SGP4","ELEMENT_SET_NO":"999","CLASSIFICATION_TYPE":"U","CENTER_NAME":"EARTH","NORAD_CAT_ID":"47649","SEMIMAJOR_AXIS":"6925.338","PERIAPSIS":"546.055","EPHEMERIS_TYPE":"0","PERIOD":"95.592","MEAN_MOTION":"15.06403562","ARG_OF_PERICENTER":"83.3817","FILE":"3728952","APOAPSIS":"548.350","RCS_SIZE":"LARGE","REF_FRAME":"TEME"},{"MEAN_MOTION":"15.06388120","ARG_OF_PERICENTER":"83.8904","FILE":"3728952","APOAPSIS":"548.120","RCS_SIZE":"LARGE","REF_FRAME":"TEME","MEAN_MOTION_DOT":"-0.00001751","MEAN_ELEMENT_THEORY":"SGP4","ELEMENT_SET_NO":"999","CLASSIFICATION_TYPE":"U","NORAD_CAT_ID":"47650","CENTER_NAME":"EARTH","SEMIMAJOR_AXIS":"6925.385","EPHEMERIS_TYPE":"0","PERIAPSIS":"546.380","PERIOD":"95.593","LAUNCH_DATE":"2021-02-16","TLE_LINE2":"2 47650  53.0546 231.6229 0001256  83.8904 276.2228 15.06388120104994","TIME_SYSTEM":"UTC","INCLINATION":"53.0546","RA_OF_ASC_NODE":"231.6229","OBJECT_NAME":"STARLINK-2033","TLE_LINE1":"1 47650U 21012AG  23001.89385540 -.00001751  00000-0 -98727-4 0  9999","DECAY_DATE":null,"BSTAR":"-0.00009872700000","SITE":"AFETR","EPOCH":"2023-01-01T21:27:09.106560","MEAN_MOTION_DDOT":"0.0000000000000","OBJECT_ID":"2021-012AG","ECCENTRICITY":"0.00012560","REV_AT_EPOCH":"10499","COUNTRY_CODE":"US","GP_ID":"221988019","OBJECT_TYPE":"PAYLOAD","MEAN_ANOMALY":"276.2228"},{"ELEMENT_SET_NO":"999","MEAN_MOTION_DOT":"-0.00002993","MEAN_ELEMENT_THEORY":"SGP4","NORAD_CAT_ID":"47651","CENTER_NAME":"EARTH","CLASSIFICATION_TYPE":"U","SEMIMAJOR_AXIS":"6925.350","PERIOD":"95.592","PERIAPSIS":"546.241","EPHEMERIS_TYPE":"0","FILE":"3728759","APOAPSIS":"548.189","MEAN_MOTION":"15.06399584","ARG_OF_PERICENTER":"101.9597","RCS_SIZE":"LARGE","REF_FRAME":"TEME","TLE_LINE1":"1 47651U 21012AH  23001.40177441 -.00002993  00000-0 -18211-3 0  9994","DECAY_DATE":null,"SITE":"AFETR","BSTAR":"-0.00018211000000","EPOCH":"2023-01-01T09:38:33.309024","MEAN_MOTION_DDOT":"0.0000000000000","REV_AT_EPOCH":"10465","OBJECT_ID":"2021-012AH","ECCENTRICITY":"0.00014060","OBJECT_TYPE":"PAYLOAD","GP_ID":"221930910","MEAN_ANOMALY":"258.1549","COUNTRY_CODE":"US","LAUNCH_DATE":"2021-02-16","TLE_LINE2":"2 47651  53.0516 253.8763 0001406 101.9597 258.1549 15.06399584104652","TIME_SYSTEM":"UTC","RA_OF_ASC_NODE":"253.8763","OBJECT_NAME":"STARLINK-2035","INCLINATION":"53.0516"},{"TIME_SYSTEM":"UTC","OBJECT_NAME":"STARLINK-2036","RA_OF_ASC_NODE":"251.3395","INCLINATION":"53.0536","LAUNCH_DATE":"2021-02-16","TLE_LINE2":"2 47652  53.0536 251.3395 0001636  96.7576 263.3599 15.06371219104739","REV_AT_EPOCH":"10473","ECCENTRICITY":"0.00016360","OBJECT_ID":"2021-012AJ","MEAN_ANOMALY":"263.3599","GP_ID":"221989021","OBJECT_TYPE":"PAYLOAD","COUNTRY_CODE":"US","DECAY_DATE":null,"TLE_LINE1":"1 47652U 21012AJ  23001.95467225 -.00005713  00000-0 -36522-3 0  9995","SITE":"AFETR","BSTAR":"-0.00036522000000","MEAN_MOTION_DDOT":"0.0000000000000","EPOCH":"2023-01-01T22:54:43.682400","RCS_SIZE":"LARGE","REF_FRAME":"TEME","APOAPSIS":"548.435","FILE":"3728952","ARG_OF_PERICENTER":"96.7576","MEAN_MOTION":"15.06371219","SEMIMAJOR_AXIS":"6925.437","PERIOD":"95.594","EPHEMERIS_TYPE":"0","PERIAPSIS":"546.169","ELEMENT_SET_NO":"999","MEAN_ELEMENT_THEORY":"SGP4","MEAN_MOTION_DOT":"-0.00005713","NORAD_CAT_ID":"47652","CENTER_NAME":"EARTH","CLASSIFICATION_TYPE":"U"},{"REF_FRAME":"TEME","RCS_SIZE":"LARGE","MEAN_MOTION":"15.06407140","ARG_OF_PERICENTER":"74.6393","FILE":"3728952","APOAPSIS":"548.083","PERIAPSIS":"546.300","EPHEMERIS_TYPE":"0","PERIOD":"95.592","SEMIMAJOR_AXIS":"6925.327","CLASSIFICATION_TYPE":"U","CENTER_NAME":"EARTH","NORAD_CAT_ID":"47653","MEAN_MOTION_DOT":"-0.00001826","MEAN_ELEMENT_THEORY":"SGP4","ELEMENT_SET_NO":"999","INCLINATION":"53.0544","RA_OF_ASC_NODE":"232.5675","OBJECT_NAME":"STARLINK-2037","TIME_SYSTEM":"UTC","TLE_LINE2":"2 47653  53.0544 232.5675 0001287  74.6393 285.4738 15.06407140104963","LAUNCH_DATE":"2021-02-16","COUNTRY_CODE":"US","GP_ID":"221989271","OBJECT_TYPE":"PAYLOAD","MEAN_ANOMALY":"285.4738","OBJECT_ID":"2021-012AK","ECCENTRICITY":"0.00012870","REV_AT_EPOCH":"10496","EPOCH":"2023-01-01T16:24:36.518400","MEAN_MOTION_DDOT":"0.0000000000000","TLE_LINE1":"1 47653U 21012AK  23001.68375600 -.00001826  00000-0 -10373-3 0  9998","SITE":"AFETR","DECAY_DATE":null,"BSTAR":"-0.00010373000000"},{"LAUNCH_DATE":"2021-02-16","TLE_LINE2":"2 47654  53.0505 253.7133 0001486  84.6564 275.4595 15.06385394104659","TIME_SYSTEM":"UTC","INCLINATION":"53.0505","OBJECT_NAME":"STARLINK-2038","RA_OF_ASC_NODE":"253.7133","DECAY_DATE":null,"TLE_LINE1":"1 47654U 21012AL  23001.42757987 -.00001865  00000-0 -10637-3 0  9999","SITE":"AFETR","BSTAR":"-0.00010637000000","MEAN_MOTION_DDOT":"0.0000000000000","EPOCH":"2023-01-01T10:15:42.900768","ECCENTRICITY":"0.00014860","OBJECT_ID":"2021-012AL","REV_AT_EPOCH":"10465","COUNTRY_CODE":"US","MEAN_ANOMALY":"275.4595","OBJECT_TYPE":"PAYLOAD","GP_ID":"221931648","ARG_OF_PERICENTER":"84.6564","MEAN_MOTION":"15.06385394","APOAPSIS":"548.287","FILE":"3728759","RCS_SIZE":"LARGE","REF_FRAME":"TEME","MEAN_ELEMENT_THEORY":"SGP4","MEAN_MOTION_DOT":"-0.00001865","ELEMENT_SET_NO":"999","CLASSIFICATION_TYPE":"U","NORAD_CAT_ID":"47654","CENTER_NAME":"EARTH","SEMIMAJOR_AXIS":"6925.393","EPHEMERIS_TYPE":"0","PERIAPSIS":"546.229","PERIOD":"95.593"},{"TLE_LINE2":"2 47655  53.0536 251.3627 0001706  72.7997 287.3179 15.06382462104731","LAUNCH_DATE":"2021-02-16","OBJECT_NAME":"STARLINK-2039","RA_OF_ASC_NODE":"251.3627","INCLINATION":"53.0536","TIME_SYSTEM":"UTC","MEAN_MOTION_DDOT":"0.0000000000000","EPOCH":"2023-01-01T22:49:25.549824","TLE_LINE1":"1 47655U 21012AM  23001.95099016 -.00005703  00000-0 -36443-3 0  9998","DECAY_DATE":null,"SITE":"AFETR","BSTAR":"-0.00036443000000","MEAN_ANOMALY":"287.3179","OBJECT_TYPE":"PAYLOAD","GP_ID":"221988270","COUNTRY_CODE":"US","REV_AT_EPOCH":"10473","ECCENTRICITY":"0.00017060","OBJECT_ID":"2021-012AM","APOAPSIS":"548.449","FILE":"3728952","ARG_OF_PERICENTER":"72.7997","MEAN_MOTION":"15.06382462","REF_FRAME":"TEME","RCS_SIZE":"LARGE","NORAD_CAT_ID":"47655","CENTER_NAME":"EARTH","CLASSIFICATION_TYPE":"U","ELEMENT_SET_NO":"999","MEAN_ELEMENT_THEORY":"SGP4","MEAN_MOTION_DOT":"-0.00005703","PERIOD":"95.593","PERIAPSIS":"546.086","EPHEMERIS_TYPE":"0","SEMIMAJOR_AXIS":"6925.402"}];
